[
    {
        "Altitude(m)": 707283.8803867555,
        "Argument of Periapsis(deg)": 0.004556048474650827,
        "Eccentricity": 0.0,
        "Inclination(deg)": 45.0,
        "Latitude(deg)": 45.0432994480207,
        "Longitude(deg)": -60.33000633749084,
        "Mean Anomaly(deg)": -273.56851334100764,
        "RAAN(deg)": 314.99569922341675,
        "Satellite Name": "Constellation 1 1391",
        "Satellite Number": 1391,
        "Semi-Major Axis(m)": 7083131.272910544,
        "Time(s)": 76
    },
    {
        "Altitude(m)": 707284.7364111373,
        "Argument of Periapsis(deg)": 0.004615996480896233,
        "Eccentricity": 0.0,
        "Inclination(deg)": 45.0,
        "Latitude(deg)": 45.047045087906014,
        "Longitude(deg)": -60.24854745589168,
        "Mean Anomaly(deg)": -273.50781220075777,
        "RAAN(deg)": 314.99564263425117,
        "Satellite Name": "Constellation 1 1391",
        "Satellite Number": 1391,
        "Semi-Major Axis(m)": 7083131.272910544,
        "Time(s)": 77
    },
    {
        "Altitude(m)": 707285.5779389023,
        "Argument of Periapsis(deg)": 0.004675944487141638,
        "Eccentricity": 0.0,
        "Inclination(deg)": 45.0,
        "Latitude(deg)": 45.05072663412425,
        "Longitude(deg)": -60.16707750839808,
        "Mean Anomaly(deg)": -273.44711106050784,
        "RAAN(deg)": 314.99558604508553,
        "Satellite Name": "Constellation 1 1391",
        "Satellite Number": 1391,
        "Semi-Major Axis(m)": 7083131.272910544,
        "Time(s)": 78
    },
    {
        "Altitude(m)": 707286.4049651766,
        "Argument of Periapsis(deg)": 0.004735892493387044,
        "Eccentricity": 0.0,
        "Inclination(deg)": 45.0,
        "Latitude(deg)": 45.05434407036882,
        "Longitude(deg)": -60.08559668322888,
        "Mean Anomaly(deg)": -273.38640992025796,
        "RAAN(deg)": 314.99552945592,
        "Satellite Name": "Constellation 1 1391",
        "Satellite Number": 1391,
        "Semi-Major Axis(m)": 7083131.272910544,
        "Time(s)": 79
    },
    {
        "Altitude(m)": 707287.2174851503,
        "Argument of Periapsis(deg)": 0.004795840499632449,
        "Eccentricity": 0.0,
        "Inclination(deg)": 45.0,
        "Latitude(deg)": 45.057897380611834,
        "Longitude(deg)": -60.00410516879609,
        "Mean Anomaly(deg)": -273.32570878000803,
        "RAAN(deg)": 314.9954728667544,
        "Satellite Name": "Constellation 1 1391",
        "Satellite Number": 1391,
        "Semi-Major Axis(m)": 7083131.272910544,
        "Time(s)": 80
    },
    {
        "Altitude(m)": 707288.0154941148,
        "Argument of Periapsis(deg)": 0.004855788505877855,
        "Eccentricity": 0.0,
        "Inclination(deg)": 45.0,
        "Latitude(deg)": 45.061386549104775,
        "Longitude(deg)": -59.922603153702035,
        "Mean Anomaly(deg)": -273.2650076397582,
        "RAAN(deg)": 314.9954162775889,
        "Satellite Name": "Constellation 1 1391",
        "Satellite Number": 1391,
        "Semi-Major Axis(m)": 7083131.272910544,
        "Time(s)": 81
    },
    {
        "Altitude(m)": 707288.7989874347,
        "Argument of Periapsis(deg)": 0.00491573651212326,
        "Eccentricity": 0.0,
        "Inclination(deg)": 45.0,
        "Latitude(deg)": 45.06481156037842,
        "Longitude(deg)": -59.84109099483284,
        "Mean Anomaly(deg)": -273.2043064995082,
        "RAAN(deg)": 314.9953596884233,
        "Satellite Name": "Constellation 1 1391",
        "Satellite Number": 1391,
        "Semi-Major Axis(m)": 7083131.272910544,
        "Time(s)": 82
    },
    {
        "Altitude(m)": 707289.5679605679,
        "Argument of Periapsis(deg)": 0.004975684518368666,
        "Eccentricity": 0.0,
        "Inclination(deg)": 45.0,
        "Latitude(deg)": 45.06817239924386,
        "Longitude(deg)": -59.75956854496809,
        "Mean Anomaly(deg)": -273.14360535925834,
        "RAAN(deg)": 314.9953030992577,
        "Satellite Name": "Constellation 1 1391",
        "Satellite Number": 1391,
        "Semi-Major Axis(m)": 7083131.272910544,
        "Time(s)": 83
    },
    {
        "Altitude(m)": 707290.322409051,
        "Argument of Periapsis(deg)": 0.005035632524614072,
        "Eccentricity": 0.0,
        "Inclination(deg)": 45.0,
        "Latitude(deg)": 45.07146905079199,
        "Longitude(deg)": -59.67803616135763,
        "Mean Anomaly(deg)": -273.0829042190085,
        "RAAN(deg)": 314.99524651009216,
        "Satellite Name": "Constellation 1 1391",
        "Satellite Number": 1391,
        "Semi-Major Axis(m)": 7083131.272910544,
        "Time(s)": 84
    },
    {
        "Altitude(m)": 707291.0623285084,
        "Argument of Periapsis(deg)": 0.0050955805308594785,
        "Eccentricity": 0.0,
        "Inclination(deg)": 45.0,
        "Latitude(deg)": 45.07470150039432,
        "Longitude(deg)": -59.59649403333183,
        "Mean Anomaly(deg)": -273.0222030787585,
        "RAAN(deg)": 314.9951899209266,
        "Satellite Name": "Constellation 1 1391",
        "Satellite Number": 1391,
        "Semi-Major Axis(m)": 7083131.272910544,
        "Time(s)": 85
    },
    {
        "Altitude(m)": 707291.7877146528,
        "Argument of Periapsis(deg)": 0.005155528537104883,
        "Eccentricity": 0.0,
        "Inclination(deg)": 45.0,
        "Latitude(deg)": 45.07786973370317,
        "Longitude(deg)": -59.514942350395046,
        "Mean Anomaly(deg)": -272.9615019385087,
        "RAAN(deg)": 314.99513333176105,
        "Satellite Name": "Constellation 1 1391",
        "Satellite Number": 1391,
        "Semi-Major Axis(m)": 7083131.272910544,
        "Time(s)": 86
    },
    {
        "Altitude(m)": 707292.4985632778,
        "Argument of Periapsis(deg)": 0.0052154765433502885,
        "Eccentricity": 0.0,
        "Inclination(deg)": 45.0,
        "Latitude(deg)": 45.080973736652005,
        "Longitude(deg)": -59.4333813022217,
        "Mean Anomaly(deg)": -272.9008007982588,
        "RAAN(deg)": 314.9950767425955,
        "Satellite Name": "Constellation 1 1391",
        "Satellite Number": 1391,
        "Semi-Major Axis(m)": 7083131.272910544,
        "Time(s)": 87
    },
    {
        "Altitude(m)": 707293.1948702636,
        "Argument of Periapsis(deg)": 0.005275424549595694,
        "Eccentricity": 0.0,
        "Inclination(deg)": 45.0,
        "Latitude(deg)": 45.08401349545568,
        "Longitude(deg)": -59.35181107865361,
        "Mean Anomaly(deg)": -272.8400996580089,
        "RAAN(deg)": 314.99502015342983,
        "Satellite Name": "Constellation 1 1391",
        "Satellite Number": 1391,
        "Semi-Major Axis(m)": 7083131.272910544,
        "Time(s)": 88
    },
    {
        "Altitude(m)": 707293.8766315707,
        "Argument of Periapsis(deg)": 0.0053353725558411,
        "Eccentricity": 0.0,
        "Inclination(deg)": 45.0,
        "Latitude(deg)": 45.086988996610586,
        "Longitude(deg)": -59.27023203779344,
        "Mean Anomaly(deg)": -272.779398517759,
        "RAAN(deg)": 314.9949635642643,
        "Satellite Name": "Constellation 1 1391",
        "Satellite Number": 1391,
        "Semi-Major Axis(m)": 7083131.272910544,
        "Time(s)": 89
    },
    {
        "Altitude(m)": 707294.5438432554,
        "Argument of Periapsis(deg)": 0.005395320562086505,
        "Eccentricity": 0.0,
        "Inclination(deg)": 45.0,
        "Latitude(deg)": 45.089900226895615,
        "Longitude(deg)": -59.18864403361354,
        "Mean Anomaly(deg)": -272.7186973775091,
        "RAAN(deg)": 314.99490697509873,
        "Satellite Name": "Constellation 1 1391",
        "Satellite Number": 1391,
        "Semi-Major Axis(m)": 7083131.272910544,
        "Time(s)": 90
    },
    {
        "Altitude(m)": 707295.1965014505,
        "Argument of Periapsis(deg)": 0.00545526856833191,
        "Eccentricity": 0.0,
        "Inclination(deg)": 45.0,
        "Latitude(deg)": 45.09274717337142,
        "Longitude(deg)": -59.107047424534,
        "Mean Anomaly(deg)": -272.65799623725917,
        "RAAN(deg)": 314.9948503859332,
        "Satellite Name": "Constellation 1 1391",
        "Satellite Number": 1391,
        "Semi-Major Axis(m)": 7083131.272910544,
        "Time(s)": 91
    },
    {
        "Altitude(m)": 707295.8346023719,
        "Argument of Periapsis(deg)": 0.005515216574577317,
        "Eccentricity": 0.0,
        "Inclination(deg)": 45.0,
        "Latitude(deg)": 45.09552982338136,
        "Longitude(deg)": -59.02544240103211,
        "Mean Anomaly(deg)": -272.59729509700935,
        "RAAN(deg)": 314.9947937967676,
        "Satellite Name": "Constellation 1 1391",
        "Satellite Number": 1391,
        "Semi-Major Axis(m)": 7083131.272910544,
        "Time(s)": 92
    },
    {
        "Altitude(m)": 707296.4581423339,
        "Argument of Periapsis(deg)": 0.005575164580822722,
        "Eccentricity": 0.0,
        "Inclination(deg)": 45.0,
        "Latitude(deg)": 45.098248164551656,
        "Longitude(deg)": -58.94382915373533,
        "Mean Anomaly(deg)": -272.53659395675936,
        "RAAN(deg)": 314.99473720760204,
        "Satellite Name": "Constellation 1 1391",
        "Satellite Number": 1391,
        "Semi-Major Axis(m)": 7083131.272910544,
        "Time(s)": 93
    },
    {
        "Altitude(m)": 707297.0671177157,
        "Argument of Periapsis(deg)": 0.005635112587068129,
        "Eccentricity": 0.0,
        "Inclination(deg)": 45.0,
        "Latitude(deg)": 45.100902184791536,
        "Longitude(deg)": -58.86220787341844,
        "Mean Anomaly(deg)": -272.4758928165095,
        "RAAN(deg)": 314.99468061843646,
        "Satellite Name": "Constellation 1 1391",
        "Satellite Number": 1391,
        "Semi-Major Axis(m)": 7083131.272910544,
        "Time(s)": 94
    }
]